{
  "type": "FeatureCollection",
  "features": [
    {
      "type": "Feature",
      "properties": {
        "norad_id": 40376,
        "name": "SMAP",
        "group": "resource",
        "lat": -50.13717215173099,
        "lon": 12.040278866760424,
        "alt_km": 689.9294946421478,
        "timestamp": "2025-12-23T14:49:08.986754+00:00",
        "meta_object_name": "SMAP",
        "meta_object_id": "2015-003A",
        "meta_epoch": "2025-12-23T03:33:49.735584",
        "meta_mean_motion": 14.63357429,
        "meta_eccentricity": 0.00012295,
        "meta_inclination": 98.1289,
        "meta_ra_of_asc_node": 1.7223,
        "meta_arg_of_pericenter": 91.7952,
        "meta_mean_anomaly": 268.3391,
        "meta_ephemeris_type": 0,
        "meta_classification_type": "U",
        "meta_norad_cat_id": 40376,
        "meta_element_set_no": 999,
        "meta_rev_at_epoch": 58187,
        "meta_bstar": 0.00010770327,
        "meta_mean_motion_dot": 5.09e-06,
        "meta_mean_motion_ddot": 0,
        "tle_line1": "1 40376U 15003A   25357.14849231  .00000509  00000+0  10770-3 0  9994",
        "tle_line2": "2 40376  98.1289   1.7223 0001229  91.7952 268.3391 14.63357429581876"
      },
      "geometry": {
        "type": "Point",
        "coordinates": [
          12.040278866760424,
          -50.13717215173099
        ]
      }
    },
    {
      "type": "Feature",
      "properties": {
        "norad_id": 40536,
        "name": "KOMPSAT-3A",
        "group": "resource",
        "lat": -77.7878663302575,
        "lon": 11.141807654952407,
        "alt_km": 444.50668876327836,
        "timestamp": "2025-12-23T14:49:08.986766+00:00",
        "meta_object_name": "KOMPSAT-3A",
        "meta_object_id": "2015-014A",
        "meta_epoch": "2025-12-23T05:50:13.236000",
        "meta_mean_motion": 15.4431432,
        "meta_eccentricity": 0.00055987,
        "meta_inclination": 97.6802,
        "meta_ra_of_asc_node": 332.1724,
        "meta_arg_of_pericenter": 104.102,
        "meta_mean_anomaly": 256.085,
        "meta_ephemeris_type": 0,
        "meta_classification_type": "U",
        "meta_norad_cat_id": 40536,
        "meta_element_set_no": 999,
        "meta_rev_at_epoch": 59457,
        "meta_bstar": 0.00042144941,
        "meta_mean_motion_dot": 0.00019353,
        "meta_mean_motion_ddot": 0,
        "tle_line1": "1 40536U 15014A   25357.24320875  .00019353  00000+0  42145-3 0  9991",
        "tle_line2": "2 40536  97.6802 332.1724 0005598 104.1020 256.0850 15.44314320594572"
      },
      "geometry": {
        "type": "Point",
        "coordinates": [
          11.141807654952407,
          -77.7878663302575
        ]
      }
    },
    {
      "type": "Feature",
      "properties": {
        "norad_id": 40697,
        "name": "SENTINEL-2A",
        "group": "resource",
        "lat": -14.509465580057242,
        "lon": 72.23524393851696,
        "alt_km": 793.8164415178917,
        "timestamp": "2025-12-23T14:49:08.986781+00:00",
        "meta_object_name": "SENTINEL-2A",
        "meta_object_id": "2015-028A",
        "meta_epoch": "2025-12-23T06:29:45.367008",
        "meta_mean_motion": 14.3080892,
        "meta_eccentricity": 0.00010575,
        "meta_inclination": 98.5735,
        "meta_ra_of_asc_node": 69.6558,
        "meta_arg_of_pericenter": 89.638,
        "meta_mean_anomaly": 270.4924,
        "meta_ephemeris_type": 0,
        "meta_classification_type": "U",
        "meta_norad_cat_id": 40697,
        "meta_element_set_no": 999,
        "meta_rev_at_epoch": 54857,
        "meta_bstar": 1.6709506e-05,
        "meta_mean_motion_dot": 0,
        "meta_mean_motion_ddot": 0,
        "tle_line1": "1 40697U 15028A   25357.27066397  .00000000  00000+0  16710-4 0  9992",
        "tle_line2": "2 40697  98.5735  69.6558 0001057  89.6380 270.4924 14.30808920548573"
      },
      "geometry": {
        "type": "Point",
        "coordinates": [
          72.23524393851696,
          -14.509465580057242
        ]
      }
    },
    {
      "type": "Feature",
      "properties": {
        "norad_id": 40701,
        "name": "GAOFEN-8",
        "group": "resource",
        "lat": -67.58838206162372,
        "lon": -164.5826873414831,
        "alt_km": 464.2523664974924,
        "timestamp": "2025-12-23T14:49:08.986796+00:00",
        "meta_object_name": "GAOFEN-8",
        "meta_object_id": "2015-030A",
        "meta_epoch": "2025-12-23T07:18:56.678688",
        "meta_mean_motion": 15.38878365,
        "meta_eccentricity": 0.00114141,
        "meta_inclination": 97.6906,
        "meta_ra_of_asc_node": 175.9619,
        "meta_arg_of_pericenter": 102.1884,
        "meta_mean_anomaly": 258.064,
        "meta_ephemeris_type": 0,
        "meta_classification_type": "U",
        "meta_norad_cat_id": 40701,
        "meta_element_set_no": 999,
        "meta_rev_at_epoch": 58433,
        "meta_bstar": 0.0016695939,
        "meta_mean_motion_dot": 0.00064729,
        "meta_mean_motion_ddot": 0,
        "tle_line1": "1 40701U 15030A   25357.30482267  .00064729  00000+0  16696-2 0  9992",
        "tle_line2": "2 40701  97.6906 175.9619 0011414 102.1884 258.0640 15.38878365584336"
      },
      "geometry": {
        "type": "Point",
        "coordinates": [
          -164.5826873414831,
          -67.58838206162372
        ]
      }
    },
    {
      "type": "Feature",
      "properties": {
        "norad_id": 40718,
        "name": "CARBONITE 1 (CBNT-1)",
        "group": "resource",
        "lat": -14.72525262944133,
        "lon": -3.839269668241528,
        "alt_km": 618.1979132860888,
        "timestamp": "2025-12-23T14:49:08.986806+00:00",
        "meta_object_name": "CARBONITE 1 (CBNT-1)",
        "meta_object_id": "2015-032D",
        "meta_epoch": "2025-12-23T07:27:58.843008",
        "meta_mean_motion": 14.82786865,
        "meta_eccentricity": 0.00151797,
        "meta_inclination": 97.6398,
        "meta_ra_of_asc_node": 177.8896,
        "meta_arg_of_pericenter": 147.4121,
        "meta_mean_anomaly": 212.8033,
        "meta_ephemeris_type": 0,
        "meta_classification_type": "U",
        "meta_norad_cat_id": 40718,
        "meta_element_set_no": 999,
        "meta_rev_at_epoch": 56327,
        "meta_bstar": 0.00013872408,
        "meta_mean_motion_dot": 1.073e-05,
        "meta_mean_motion_ddot": 0,
        "tle_line1": "1 40718U 15032D   25357.31109772  .00001073  00000+0  13872-3 0  9997",
        "tle_line2": "2 40718  97.6398 177.8896 0015179 147.4121 212.8033 14.82786865563270"
      },
      "geometry": {
        "type": "Point",
        "coordinates": [
          -3.839269668241528,
          -14.72525262944133
        ]
      }
    },
    {
      "type": "Feature",
      "properties": {
        "norad_id": 40878,
        "name": "YAOGAN-27",
        "group": "resource",
        "lat": -34.612581825846696,
        "lon": 159.67862615982293,
        "alt_km": 1201.7587402078134,
        "timestamp": "2025-12-23T14:49:08.986818+00:00",
        "meta_object_name": "YAOGAN-27",
        "meta_object_id": "2015-040A",
        "meta_epoch": "2025-12-23T06:25:50.096352",
        "meta_mean_motion": 13.16061314,
        "meta_eccentricity": 0.00075626,
        "meta_inclination": 100.1011,
        "meta_ra_of_asc_node": 346.4116,
        "meta_arg_of_pericenter": 260.5734,
        "meta_mean_anomaly": 99.4525,
        "meta_ephemeris_type": 0,
        "meta_classification_type": "U",
        "meta_norad_cat_id": 40878,
        "meta_element_set_no": 999,
        "meta_rev_at_epoch": 49452,
        "meta_bstar": 0.00097034881,
        "meta_mean_motion_dot": 3.26e-06,
        "meta_mean_motion_ddot": 0,
        "tle_line1": "1 40878U 15040A   25357.26794093  .00000326  00000+0  97035-3 0  9996",
        "tle_line2": "2 40878 100.1011 346.4116 0007562 260.5734  99.4525 13.16061314494529"
      },
      "geometry": {
        "type": "Point",
        "coordinates": [
          159.67862615982293,
          -34.612581825846696
        ]
      }
    },
    {
      "type": "Feature",
      "properties": {
        "norad_id": 40894,
        "name": "GAOFEN-9 01",
        "group": "resource",
        "lat": 75.17612818198147,
        "lon": -113.36346998605372,
        "alt_km": 618.9296315308766,
        "timestamp": "2025-12-23T14:49:08.986829+00:00",
        "meta_object_name": "GAOFEN-9 01",
        "meta_object_id": "2015-047A",
        "meta_epoch": "2025-12-23T06:15:33.246144",
        "meta_mean_motion": 14.82446812,
        "meta_eccentricity": 0.00275305,
        "meta_inclination": 97.6529,
        "meta_ra_of_asc_node": 35.7613,
        "meta_arg_of_pericenter": 0.353,
        "meta_mean_anomaly": 359.7698,
        "meta_ephemeris_type": 0,
        "meta_classification_type": "U",
        "meta_norad_cat_id": 40894,
        "meta_element_set_no": 999,
        "meta_rev_at_epoch": 55412,
        "meta_bstar": 0.00013384315,
        "meta_mean_motion_dot": 1.029e-05,
        "meta_mean_motion_ddot": 0,
        "tle_line1": "1 40894U 15047A   25357.26080146  .00001029  00000+0  13384-3 0  9994",
        "tle_line2": "2 40894  97.6529  35.7613 0027530   0.3530 359.7698 14.82446812554122"
      },
      "geometry": {
        "type": "Point",
        "coordinates": [
          -113.36346998605372,
          75.17612818198147
        ]
      }
    }
  ]
}